[{"OBJECT_NAME":"ONEWEB-0290","OBJECT_ID":"2021-075F","EPOCH":"2026-03-09T22:19:04.093536","MEAN_MOTION":13.17650403,"ECCENTRICITY":0.00023815,"INCLINATION":87.9158,"RA_OF_ASC_NODE":25.5567,"ARG_OF_PERICENTER":88.4079,"MEAN_ANOMALY":271.7325,"EPHEMERIS_TYPE":0,"CLASSIFICATION_TYPE":"U","NORAD_CAT_ID":49080,"ELEMENT_SET_NO":999,"REV_AT_EPOCH":22054,"BSTAR":0.00022685575,"MEAN_MOTION_DOT":1.01e-6,"MEAN_MOTION_DDOT":0},{"OBJECT_NAME":"SL-14 DEB","OBJECT_ID":"1991-056R","EPOCH":"2026-03-09T12:05:06.471168","MEAN_MOTION":13.01968847,"ECCENTRICITY":0.00798304,"INCLINATION":82.5509,"RA_OF_ASC_NODE":251.8456,"ARG_OF_PERICENTER":276.3056,"MEAN_ANOMALY":82.897,"EPHEMERIS_TYPE":0,"CLASSIFICATION_TYPE":"U","NORAD_CAT_ID":45279,"ELEMENT_SET_NO":999,"REV_AT_EPOCH":28766,"BSTAR":0.0022455483,"MEAN_MOTION_DOT":7.16e-6,"MEAN_MOTION_DDOT":0}]
